TEVEL2-5                
1 63214U 25052E   26068.96660006  .00021339  00000+0  71765-3 0  9991
2 63214  97.4013 325.3677 0004700  95.3936 264.7842 15.30817434 54919
STARLINK-34999          
1 65222U 25176AA  26068.47396430  .00015522  00000+0  53501-3 0  9997
2 65222  53.1599 153.9922 0001307 105.6394 254.4751 15.30205110 33081
